OBJECT_NAME,OBJECT_ID,EPOCH,MEAN_MOTION,ECCENTRICITY,INCLINATION,RA_OF_ASC_NODE,ARG_OF_PERICENTER,MEAN_ANOMALY,EPHEMERIS_TYPE,CLASSIFICATION_TYPE,NORAD_CAT_ID,ELEMENT_SET_NO,REV_AT_EPOCH,BSTAR,MEAN_MOTION_DOT,MEAN_MOTION_DDOT
COSMOS 2508 (RODNIK-S 14),2015-050B,2026-06-04T03:31:42.934944,12.42913542,.0015478,82.4879,86.2987,53.4793,306.7710,0,U,40921,999,48522,.18512E-3,.36E-6,0
COSMOS 2509 (RODNIK-S 15),2015-050C,2026-06-04T04:00:32.216256,12.42883147,.0015882,82.4886,86.3872,69.3326,290.9455,0,U,40922,999,48526,.32065E-3,.54E-6,0
LINGQIAO VIDEO A,2015-057B,2026-06-04T05:20:01.339872,14.77374746,.0015761,97.6615,150.6642,316.2756,43.7206,0,U,40959,999,57349,.14403E-3,.977E-5,0
LINGQIAO VIDEO B,2015-057C,2026-06-04T04:47:46.615776,14.77479220,.0015947,97.6581,151.8098,316.4492,43.5459,0,U,40960,999,57353,.62004E-4,.394E-5,0
JILIN-1,2015-057D,2026-06-04T03:38:07.488384,14.78138445,.0015691,97.6506,155.1658,309.6799,50.3028,0,U,40961,999,57368,.1607E-3,.1117E-4,0
FOX-1A (AO-85),2015-058D,2026-06-04T01:42:57.365856,14.90899033,.0129768,64.7763,319.7410,61.7322,299.6816,0,U,40967,999,11161,.29844E-3,.329E-4,0
SINOD-D 1,2015-058E,2026-06-03T15:22:09.148224,14.95808519,.0118307,64.7764,301.3323,58.5158,302.7453,0,U,40968,999,11463,.35119E-3,.4348E-4,0
ELEKTRO-L 2,2015-074A,2026-06-04T01:30:52.284096,1.00272364,.000133,6.6614,70.6831,280.5449,269.5208,0,U,41105,999,3837,0,-.107E-5,0
DAMPE,2015-078A,2026-06-04T03:50:26.083968,15.30749703,.0013472,97.4555,160.5633,117.6259,242.6351,0,U,41173,999,58255,.46119E-4,.1296E-4,0
ORBCOMM FM114,2015-081A,2026-06-01T23:30:56.809152,14.58838571,.00015469,47.0052,73.9009,135.7645,224.3365,0,U,41179,999,55553,.16355792E-3,.602E-5,0
ORBCOMM FM110,2015-081D,2026-06-02T23:53:49.713792,14.58854978,.00032303,47.0024,68.5419,358.8742,1.2136,0,U,41182,999,55555,.19639955E-3,.757E-5,0
ORBCOMM FM112,2015-081F,2026-06-03T22:12:08.428320,14.58883626,.0002854,47.0002,332.9588,156.2959,203.8059,0,U,41184,999,55701,.19993E-3,.774E-5,0
ORBCOMM FM113,2015-081G,2026-06-01T12:06:07.822944,14.58839578,.00013088,47.0021,344.7743,154.2176,205.8776,0,U,41185,999,55664,.1680085E-3,.623E-5,0
ORBCOMM FM108,2015-081J,2026-06-01T22:42:30.904992,14.58851287,.00021293,47.0049,254.2558,152.3962,207.7037,0,U,41187,999,55785,.23678195E-3,.948E-5,0
ORBCOMM FM117,2015-081K,2026-06-02T17:36:15.708096,14.58849437,.00027018,47.0011,249.1714,159.5688,200.5306,0,U,41188,999,55801,.21351104E-3,.838E-5,0
ORBCOMM FM116,2015-081L,2026-06-03T22:43:27.840864,14.58862060,.0001433,47.0035,333.2243,348.9329,11.1525,0,U,41189,999,55700,.20578E-3,.802E-5,0
HORYU-4,2016-012D,2026-06-01T10:26:11.976576,15.85409012,.00022929,30.9850,193.7734,171.6706,188.3991,0,U,41340,999,56830,.10080768E-2,.260233E-2,0
ZIYUAN 3-02 (ZY 3-02),2016-033A,2026-06-04T04:00:46.306368,15.21348355,.0012004,97.3834,231.1902,340.8500,19.2283,0,U,41556,999,55600,.26403E-3,.5857E-4,0
CARTOSAT-2C,2016-040A,2026-06-04T03:37:40.896192,15.19208175,.0009527,97.4489,215.3071,172.4899,187.6480,0,U,41599,999,55173,.16188E-3,.3342E-4,0
LAPAN-A3,2016-040E,2026-06-04T04:51:08.309664,15.33019137,.0012046,97.1488,151.7758,67.0872,293.1641,0,U,41603,999,55282,.11643E-3,.3646E-4,0
GAOFEN-3,2016-049A,2026-06-04T04:18:42.323328,14.42213247,.0001117,98.4008,163.1619,97.5545,262.5772,0,U,41727,999,51677,-.17642E-4,-.102E-5,0
CAS-2T & KS-1Q,2016-066G,2026-06-04T01:56:15.516096,14.44649631,.0342271,98.3817,230.9662,169.1491,191.7333,0,U,41847,999,50290,.2801E-3,.1943E-4,0
YUNHAI-1 01,2016-068A,2026-06-04T04:14:07.638720,14.32695427,.0006518,98.5827,166.3045,74.4067,285.7835,0,U,41857,999,49996,.5689E-4,.111E-5,0
RESOURCESAT-2A,2016-074A,2026-06-04T04:34:49.527264,14.21612036,.0003284,98.7527,228.8005,108.5085,251.6449,0,U,41877,999,49245,.12023E-3,.22E-5,0
TANSAT,2016-081A,2026-06-04T05:26:25.622016,14.59939250,.0020507,98.5359,155.1015,353.2715,6.8206,0,U,41898,999,50273,.77987E-4,.324E-5,0
